METEOSAT-5 (MOP-2)      
1 21140U 91015B   08165.95103889 -.00000216  00000-0  10000-3 0  3579
2 21140  10.0997  52.9415 0005191 124.7269 235.2242  0.98453846 65456
METEOSAT-6 (MOP-3)      
1 22912U 93073B   08165.98387150 -.00000013  00000-0  10000-3 0  5578
2 22912   7.4797  64.1952 0007509 301.6837 318.5362  1.00259925 51779
HIMAWARI-5 (GMS-5)      
1 23522U 95011B   08166.32757036  .00000111  00000-0  10000-3 0  8057
2 23522   6.6279  67.1479 0006494 318.6699  41.0867  0.99403389 48288
GOES 10                 
1 24786U 97019A   08167.35164931 -.00000273  00000-0  10000-3 0  4337
2 24786   2.7120  79.3575 0001363  34.1685 216.8662  1.00284365 40821
ORBVIEW 2 (SEASTAR)     
1 24883U 97037A   08167.41077420 -.00000024  00000-0  49243-5 0  3480
2 24883  98.3041 283.8853 0000646 282.3061  77.8072 14.59944223578922
METEOSAT-7              
1 24932U 97049B   08165.93210661  .00000073  00000-0  10000-3 0  3906
2 24932   4.2835  74.1042 0000387  68.5222 152.9959  1.00277248 39491
NOAA 15                 
1 25338U 98030A   08167.53151701 -.00000056  00000-0 -56835-5 0  5043
2 25338  98.5537 159.4322 0011596  50.7235 309.4991 14.24706991524560
GOES 11                 
1 26352U 00022A   08167.41930575  .00000102  00000-0  00000+0 0  8450
2 26352   0.4422  86.2812 0001926 116.7630  76.6332  1.00274620 29720
FENGYUN 2B              
1 26382U 00032A   08165.43822846  .00000090  00000-0  10000-3 0   616
2 26382   3.4130  77.0961 0003672 181.1063 178.5301  1.00095380 29172
NOAA 16                 
1 26536U 00055A   08167.50709752  .00000123  00000-0  91582-4 0  9747
2 26536  99.1558 156.6467 0009771 227.3173 132.7169 14.12486142398535
GOES 12                 
1 26871U 01031A   08167.22448153 -.00000237  00000-0  00000+0 0  5965
2 26871   0.0282 233.0239 0004371 190.1642 206.2534  1.00281147 25326
FENGYUN 1D              
1 27431U 02024B   08167.36974054 -.00000195  00000-0 -88096-4 0  1416
2 27431  98.6021 166.9310 0015819  18.6774 341.4979 14.09268701313145
NOAA 17                 
1 27453U 02032A   08167.43628067  .00000148  00000-0  82994-4 0  9658
2 27453  98.5349 232.1137 0012885 112.1780 248.0812 14.23981169310557
METEOSAT-8 (MSG-1)      
1 27509U 02040B   08167.02838010  .00000073  00000-0  00000+0 0  7923
2 27509   0.5457  31.2374 0001380  27.9179 224.0497  1.00266611 21311
KALPANA-1 (METSAT 1)    
1 27525U 02043A   08162.80935002 -.00000078  00000-0  10000-3 0  4461
2 27525   0.1256  89.6857 0005078 337.5936 197.6084  1.00271098 21079
INSAT-3A                
1 27714U 03013A   08166.83437068 -.00000246  00000-0  10000-3 0  1324
2 27714   0.0252 252.9481 0000398 245.1148 159.2807  1.00273238 19017
FENGYUN 2C              
1 28451U 04042A   08167.60760653 -.00000317  00000-0  00000+0 0   278
2 28451   0.4761  77.6924 0002079  58.8018  90.9252  1.00274442 13378
HIMAWARI 6 (MTSAT-1R)   
1 28622U 05006A   08167.10497944 -.00000268  00000-0  10000-3 0  6630
2 28622   0.0532 125.9044 0001933 213.7790 101.9279  1.00268182 12079
NOAA 18                 
1 28654U 05018A   08167.42204778 -.00000193  00000-0 -82304-4 0  4671
2 28654  98.8667 108.3736 0013786 323.0689  36.9527 14.11168946158226
METEOSAT-9 (MSG-2)      
1 28912U 05049B   08166.02750537  .00000006  00000-0  00000+0 0  3854
2 28912   0.5213 233.5227 0011802 117.9509 281.0074  1.00267140  9151
MTSAT-2                 
1 28937U 06004A   08166.60877601 -.00000231  00000-0  10000-3 0  4250
2 28937   0.0425  74.8897 0002462 359.9271 192.5756  1.00274847  8540
FORMOSAT 3A             
1 29047U 06011A   08166.91362115 -.00000012  00000-0  11880-4 0  6981
2 29047  71.9820  48.7457 0050870  56.0728 304.5258 14.27064018115337
FORMOSAT 3B             
1 29048U 06011B   08167.85732213  .00000389  00000-0  17471-3 0  7300
2 29048  71.9709 322.7119 0045019   2.8234 357.3136 14.27052026117940
FORMOSAT 3C             
1 29049U 06011C   08167.80558816  .00000361  00000-0  16364-3 0  6715
2 29049  72.0191 109.8122 0034776  69.8349 290.6508 14.27061493113715
FORMOSAT 3D             
1 29050U 06011D   08167.42362281  .00001095  00000-0  26646-3 0  9480
2 29050  72.0095 322.7624 0052969 342.9043  17.0265 14.53906027117932
FORMOSAT 3E             
1 29051U 06011E   08167.13552930  .00000372  00000-0  16522-3 0  7321
2 29051  72.0091  20.8231 0070320 298.0850  61.3181 14.27059315116205
FORMOSAT 3F             
1 29052U 06011F   08166.76329406  .00000359  00000-0  16273-3 0  7496
2 29052  72.0359  82.3753 0040680  41.8359 318.5857 14.27071239114450
GOES 13                 
1 29155U 06018A   08167.25253394 -.00000075  00000-0  10000-3 0  4354
2 29155   0.3147  83.0070 0000148  95.0930  71.4808  1.00271374  7578
METOP-A                 
1 29499U 06044A   08167.73841944 -.00000160  00000-0 -53139-4 0  5214
2 29499  98.7231 226.8265 0001311  98.4184 261.7142 14.21478653 85957
FENGYUN 2D              
1 29640U 06053A   08166.91400425 -.00000181  00000-0  10000-3 0  4003
2 29640   1.2033 261.9244 0000339 207.4422 209.5468  1.00263900  5624
FENGYUN 3A              
1 32958U 08026A   08167.47210242  .00000166  00000-0  10000-3 0   243
2 32958  98.8125 235.5961 0001582  99.0196 261.1159 14.19563178  2757
